TIANMU-1 10             
1 57402U 23101D   26064.97139522  .00007964  00000+0  28399-3 0  9990
2 57402  97.2754 118.1980 0006640 144.9590 215.2089 15.29139294145866
FENGYUN 3F              
1 57490U 23111A   26064.95327170  .00000106  00000+0  70519-4 0  9997
2 57490  98.6935 136.8491 0001309  81.3096 278.8229 14.19918405134210
ARKTIKA-M 2             
1 58584U 23198A   26064.07652728  .00000150  00000+0  00000+0 0  9992
2 58584  63.2186 165.9003 6877723 267.7621  18.8474  2.00612038 16239
TIANMU-1 11             
1 58645U 23205A   26065.00250245  .00007302  00000+0  28798-3 0  9995
2 58645  97.3545  88.2129 0009444  20.8952 339.2671 15.25818733121783
TIANMU-1 12             
1 58646U 23205B   26064.96916113  .00006860  00000+0  27146-3 0  9997
2 58646  97.3533  87.9599 0007224   7.6396 352.4951 15.25742113121761
TIANMU-1 13             
1 58647U 23205C   26065.00017977  .00007564  00000+0  29859-3 0  9999
2 58647  97.3561  88.2276 0006848 347.8243  12.2829 15.25792123121761
TIANMU-1 14             
1 58648U 23205D   26064.98469294  .00007256  00000+0  28672-3 0  9999
2 58648  97.3495  87.4846 0007763 351.1774   8.9327 15.25769648121767
TIANMU-1 19             
1 58660U 23208A   26064.93607603  .00011077  00000+0  38694-3 0  9990
2 58660  97.4389 180.9195 0004176 333.3285  26.7740 15.29736109121536
TIANMU-1 20             
1 58661U 23208B   26064.92330432  .00012115  00000+0  40755-3 0  9998
2 58661  97.4328 181.4366 0006457 340.1111  19.9877 15.30926518121615
TIANMU-1 21             
1 58662U 23208C   26064.92674294  .00013205  00000+0  41727-3 0  9997
2 58662  97.4383 183.7003 0006231 333.2228  26.8692 15.32921669121731
TIANMU-1 22             
1 58663U 23208D   26064.95278270  .00009865  00000+0  34897-3 0  9992
2 58663  97.4384 180.9497 0003444   7.2387 352.8902 15.29359995121544
TIANMU-1 15             
1 58700U 24004A   26064.98245038  .00007494  00000+0  29615-3 0  9996
2 58700  97.4665 251.2258 0006977   3.1625 356.9656 15.25767075120031
TIANMU-1 16             
1 58701U 24004B   26064.96601807  .00007582  00000+0  29936-3 0  9999
2 58701  97.4606 250.5351 0005514   9.4398 350.6942 15.25800986120033
TIANMU-1 17             
1 58702U 24004C   26064.94843772  .00009061  00000+0  35675-3 0  9998
2 58702  97.4638 250.9695 0004764  12.8334 347.3025 15.25838642120022
TIANMU-1 18             
1 58703U 24004D   26064.93347844  .00007898  00000+0  31189-3 0  9999
2 58703  97.4656 251.1655 0004169  14.3491 345.7865 15.25786046120026
INSAT-3DS               
1 58990U 24033A   26064.95603634 -.00000161  00000+0  00000+0 0  9994
2 58990   0.0518 262.0510 0002332  99.1539 228.6997  1.00270275 46039
METEOR-M2 4             
1 59051U 24039A   26064.99131742  .00000043  00000+0  38702-4 0  9992
2 59051  98.6901  25.6513 0008100 105.6105 254.5968 14.22416376104598
