[{"OBJECT_NAME":"TIANMU-1 10","OBJECT_ID":"2023-101D","EPOCH":"2026-03-05T23:18:48.547008","MEAN_MOTION":15.29139294,"ECCENTRICITY":0.00066406,"INCLINATION":97.2754,"RA_OF_ASC_NODE":118.198,"ARG_OF_PERICENTER":144.959,"MEAN_ANOMALY":215.2089,"EPHEMERIS_TYPE":0,"CLASSIFICATION_TYPE":"U","NORAD_CAT_ID":57402,"ELEMENT_SET_NO":999,"REV_AT_EPOCH":14586,"BSTAR":0.00028399348,"MEAN_MOTION_DOT":7.964e-5,"MEAN_MOTION_DDOT":0},{"OBJECT_NAME":"FENGYUN 3F","OBJECT_ID":"2023-111A","EPOCH":"2026-03-05T22:52:42.674880","MEAN_MOTION":14.19918405,"ECCENTRICITY":0.00013091,"INCLINATION":98.6935,"RA_OF_ASC_NODE":136.8491,"ARG_OF_PERICENTER":81.3096,"MEAN_ANOMALY":278.8229,"EPHEMERIS_TYPE":0,"CLASSIFICATION_TYPE":"U","NORAD_CAT_ID":57490,"ELEMENT_SET_NO":999,"REV_AT_EPOCH":13421,"BSTAR":7.0519128e-5,"MEAN_MOTION_DOT":1.06e-6,"MEAN_MOTION_DDOT":0},{"OBJECT_NAME":"ARKTIKA-M 2","OBJECT_ID":"2023-198A","EPOCH":"2026-03-05T01:50:11.956992","MEAN_MOTION":2.00612038,"ECCENTRICITY":0.68777232,"INCLINATION":63.2186,"RA_OF_ASC_NODE":165.9003,"ARG_OF_PERICENTER":267.7621,"MEAN_ANOMALY":18.8474,"EPHEMERIS_TYPE":0,"CLASSIFICATION_TYPE":"U","NORAD_CAT_ID":58584,"ELEMENT_SET_NO":999,"REV_AT_EPOCH":1623,"BSTAR":0,"MEAN_MOTION_DOT":1.5e-6,"MEAN_MOTION_DDOT":0},{"OBJECT_NAME":"TIANMU-1 11","OBJECT_ID":"2023-205A","EPOCH":"2026-03-06T00:03:36.211680","MEAN_MOTION":15.25818733,"ECCENTRICITY":0.00094447,"INCLINATION":97.3545,"RA_OF_ASC_NODE":88.2129,"ARG_OF_PERICENTER":20.8952,"MEAN_ANOMALY":339.2671,"EPHEMERIS_TYPE":0,"CLASSIFICATION_TYPE":"U","NORAD_CAT_ID":58645,"ELEMENT_SET_NO":999,"REV_AT_EPOCH":12178,"BSTAR":0.00028797992,"MEAN_MOTION_DOT":7.302e-5,"MEAN_MOTION_DDOT":0},{"OBJECT_NAME":"TIANMU-1 12","OBJECT_ID":"2023-205B","EPOCH":"2026-03-05T23:15:35.521632","MEAN_MOTION":15.25742113,"ECCENTRICITY":0.00072243,"INCLINATION":97.3533,"RA_OF_ASC_NODE":87.9599,"ARG_OF_PERICENTER":7.6396,"MEAN_ANOMALY":352.4951,"EPHEMERIS_TYPE":0,"CLASSIFICATION_TYPE":"U","NORAD_CAT_ID":58646,"ELEMENT_SET_NO":999,"REV_AT_EPOCH":12176,"BSTAR":0.000271463,"MEAN_MOTION_DOT":6.86e-5,"MEAN_MOTION_DDOT":0},{"OBJECT_NAME":"TIANMU-1 13","OBJECT_ID":"2023-205C","EPOCH":"2026-03-06T00:00:15.532128","MEAN_MOTION":15.25792123,"ECCENTRICITY":0.0006848,"INCLINATION":97.3561,"RA_OF_ASC_NODE":88.2276,"ARG_OF_PERICENTER":347.8243,"MEAN_ANOMALY":12.2829,"EPHEMERIS_TYPE":0,"CLASSIFICATION_TYPE":"U","NORAD_CAT_ID":58647,"ELEMENT_SET_NO":999,"REV_AT_EPOCH":12176,"BSTAR":0.00029859452,"MEAN_MOTION_DOT":7.564e-5,"MEAN_MOTION_DDOT":0},{"OBJECT_NAME":"TIANMU-1 14","OBJECT_ID":"2023-205D","EPOCH":"2026-03-05T23:37:57.470016","MEAN_MOTION":15.25769648,"ECCENTRICITY":0.00077633,"INCLINATION":97.3495,"RA_OF_ASC_NODE":87.4846,"ARG_OF_PERICENTER":351.1774,"MEAN_ANOMALY":8.9327,"EPHEMERIS_TYPE":0,"CLASSIFICATION_TYPE":"U","NORAD_CAT_ID":58648,"ELEMENT_SET_NO":999,"REV_AT_EPOCH":12176,"BSTAR":0.00028672453,"MEAN_MOTION_DOT":7.256e-5,"MEAN_MOTION_DDOT":0},{"OBJECT_NAME":"TIANMU-1 19","OBJECT_ID":"2023-208A","EPOCH":"2026-03-05T22:27:56.968992","MEAN_MOTION":15.29736109,"ECCENTRICITY":0.0004176,"INCLINATION":97.4389,"RA_OF_ASC_NODE":180.9195,"ARG_OF_PERICENTER":333.3285,"MEAN_ANOMALY":26.774,"EPHEMERIS_TYPE":0,"CLASSIFICATION_TYPE":"U","NORAD_CAT_ID":58660,"ELEMENT_SET_NO":999,"REV_AT_EPOCH":12153,"BSTAR":0.00038694143,"MEAN_MOTION_DOT":0.00011077,"MEAN_MOTION_DDOT":0},{"OBJECT_NAME":"TIANMU-1 20","OBJECT_ID":"2023-208B","EPOCH":"2026-03-05T22:09:33.493248","MEAN_MOTION":15.30926518,"ECCENTRICITY":0.00064571,"INCLINATION":97.4328,"RA_OF_ASC_NODE":181.4366,"ARG_OF_PERICENTER":340.1111,"MEAN_ANOMALY":19.9877,"EPHEMERIS_TYPE":0,"CLASSIFICATION_TYPE":"U","NORAD_CAT_ID":58661,"ELEMENT_SET_NO":999,"REV_AT_EPOCH":12161,"BSTAR":0.00040755044,"MEAN_MOTION_DOT":0.00012115,"MEAN_MOTION_DDOT":0},{"OBJECT_NAME":"TIANMU-1 21","OBJECT_ID":"2023-208C","EPOCH":"2026-03-05T22:14:30.590016","MEAN_MOTION":15.32921669,"ECCENTRICITY":0.00062317,"INCLINATION":97.4383,"RA_OF_ASC_NODE":183.7003,"ARG_OF_PERICENTER":333.2228,"MEAN_ANOMALY":26.8692,"EPHEMERIS_TYPE":0,"CLASSIFICATION_TYPE":"U","NORAD_CAT_ID":58662,"ELEMENT_SET_NO":999,"REV_AT_EPOCH":12173,"BSTAR":0.00041726734,"MEAN_MOTION_DOT":0.00013205,"MEAN_MOTION_DDOT":0},{"OBJECT_NAME":"TIANMU-1 22","OBJECT_ID":"2023-208D","EPOCH":"2026-03-05T22:52:00.425280","MEAN_MOTION":15.29359995,"ECCENTRICITY":0.00034443,"INCLINATION":97.4384,"RA_OF_ASC_NODE":180.9497,"ARG_OF_PERICENTER":7.2387,"MEAN_ANOMALY":352.8902,"EPHEMERIS_TYPE":0,"CLASSIFICATION_TYPE":"U","NORAD_CAT_ID":58663,"ELEMENT_SET_NO":999,"REV_AT_EPOCH":12154,"BSTAR":0.00034896787,"MEAN_MOTION_DOT":9.865e-5,"MEAN_MOTION_DDOT":0},{"OBJECT_NAME":"TIANMU-1 15","OBJECT_ID":"2024-004A","EPOCH":"2026-03-05T23:34:43.712832","MEAN_MOTION":15.25767075,"ECCENTRICITY":0.00069779,"INCLINATION":97.4665,"RA_OF_ASC_NODE":251.2258,"ARG_OF_PERICENTER":3.1625,"MEAN_ANOMALY":356.9656,"EPHEMERIS_TYPE":0,"CLASSIFICATION_TYPE":"U","NORAD_CAT_ID":58700,"ELEMENT_SET_NO":999,"REV_AT_EPOCH":12003,"BSTAR":0.00029615159,"MEAN_MOTION_DOT":7.494e-5,"MEAN_MOTION_DDOT":0},{"OBJECT_NAME":"TIANMU-1 16","OBJECT_ID":"2024-004B","EPOCH":"2026-03-05T23:11:03.961248","MEAN_MOTION":15.25800986,"ECCENTRICITY":0.00055144,"INCLINATION":97.4606,"RA_OF_ASC_NODE":250.5351,"ARG_OF_PERICENTER":9.4398,"MEAN_ANOMALY":350.6942,"EPHEMERIS_TYPE":0,"CLASSIFICATION_TYPE":"U","NORAD_CAT_ID":58701,"ELEMENT_SET_NO":999,"REV_AT_EPOCH":12003,"BSTAR":0.00029936153,"MEAN_MOTION_DOT":7.582e-5,"MEAN_MOTION_DDOT":0},{"OBJECT_NAME":"TIANMU-1 17","OBJECT_ID":"2024-004C","EPOCH":"2026-03-05T22:45:45.019008","MEAN_MOTION":15.25838642,"ECCENTRICITY":0.00047645,"INCLINATION":97.4638,"RA_OF_ASC_NODE":250.9695,"ARG_OF_PERICENTER":12.8334,"MEAN_ANOMALY":347.3025,"EPHEMERIS_TYPE":0,"CLASSIFICATION_TYPE":"U","NORAD_CAT_ID":58702,"ELEMENT_SET_NO":999,"REV_AT_EPOCH":12002,"BSTAR":0.00035675435,"MEAN_MOTION_DOT":9.061e-5,"MEAN_MOTION_DDOT":0},{"OBJECT_NAME":"TIANMU-1 18","OBJECT_ID":"2024-004D","EPOCH":"2026-03-05T22:24:12.537216","MEAN_MOTION":15.25786046,"ECCENTRICITY":0.00041691,"INCLINATION":97.4656,"RA_OF_ASC_NODE":251.1655,"ARG_OF_PERICENTER":14.3491,"MEAN_ANOMALY":345.7865,"EPHEMERIS_TYPE":0,"CLASSIFICATION_TYPE":"U","NORAD_CAT_ID":58703,"ELEMENT_SET_NO":999,"REV_AT_EPOCH":12002,"BSTAR":0.00031188747,"MEAN_MOTION_DOT":7.898e-5,"MEAN_MOTION_DDOT":0},{"OBJECT_NAME":"INSAT-3DS","OBJECT_ID":"2024-033A","EPOCH":"2026-03-05T22:56:41.539776","MEAN_MOTION":1.00270275,"ECCENTRICITY":0.00023322,"INCLINATION":0.0518,"RA_OF_ASC_NODE":262.051,"ARG_OF_PERICENTER":99.1539,"MEAN_ANOMALY":228.6997,"EPHEMERIS_TYPE":0,"CLASSIFICATION_TYPE":"U","NORAD_CAT_ID":58990,"ELEMENT_SET_NO":999,"REV_AT_EPOCH":4603,"BSTAR":0,"MEAN_MOTION_DOT":-1.61e-6,"MEAN_MOTION_DDOT":0},{"OBJECT_NAME":"METEOR-M2 4","OBJECT_ID":"2024-039A","EPOCH":"2026-03-05T23:47:29.825088","MEAN_MOTION":14.22416376,"ECCENTRICITY":0.00081002,"INCLINATION":98.6901,"RA_OF_ASC_NODE":25.6513,"ARG_OF_PERICENTER":105.6105,"MEAN_ANOMALY":254.5968,"EPHEMERIS_TYPE":0,"CLASSIFICATION_TYPE":"U","NORAD_CAT_ID":59051,"ELEMENT_SET_NO":999,"REV_AT_EPOCH":10459,"BSTAR":3.8702433e-5,"MEAN_MOTION_DOT":4.3e-7,"MEAN_MOTION_DDOT":0}]
